0 SJ-6C
1 29505U 06046A   13282.51718232  .00000219  00000-0  27005-4 0  7541
2 29505 097.7515 275.2986 0001465 247.7610 112.3441 14.92195509378851
0 SJ-6C
1 29505U 06046A   13282.85246682  .00000187  00000-0  23819-4 0  7557
2 29505 097.7515 275.6286 0001490 245.0818 115.0252 14.92195420378905
0 SJ-6C
1 29505U 06046A   13283.18775067  .00000146  00000-0  19823-4 0  7564
2 29505 097.7517 275.9586 0001496 244.2510 115.8547 14.92195308378954
0 SJ-6C
1 29505U 06046A   13283.32186441  .00000160  00000-0  21129-4 0  7571
2 29505 097.7520 276.0908 0001468 242.0548 118.0536 14.92195517378971
0 SJ-6C
1 29505U 06046A   13283.65714796  .00000154  00000-0  20593-4 0  7574
2 29505 097.7518 276.4207 0001477 238.6604 121.4476 14.92195693379021
0 SJ-6C
1 29505U 06046A   13283.85831823  .00000177  00000-0  22874-4 0  7587
2 29505 097.7519 276.6187 0001493 239.0100 121.0999 14.92196059379051
0 SJ-6C
1 29505U 06046A   13284.19360134  .00000198  00000-0  24854-4 0  7591
2 29505 097.7519 276.9486 0001526 238.3538 121.7561 14.92196535379107
0 SJ-6C
1 29505U 06046A   13284.46182728  .00000247  00000-0  29744-4 0  7602
2 29505 097.7522 277.2130 0001503 231.9851 128.1249 14.92197201379142
0 SJ-6C
1 29505U 06046A   13285.46767392  .00000523  00000-0  56775-4 0  7633
2 29505 097.7529 278.2030 0001567 221.4676 138.6447 14.92200580379295
0 SJ-6C
1 29505U 06046A   13285.87001243  .00000608  00000-0  65171-4 0  7649
2 29505 097.7530 278.5994 0001533 219.5566 140.5573 14.92201863379352
0 SJ-6C
1 29505U 06046A   13286.13823657  .00000714  00000-0  75555-4 0  7656
2 29505 097.7530 278.8633 0001525 219.7445 140.3671 14.92203282379392
0 SJ-6C
1 29505U 06046A   13286.47351762  .00000838  00000-0  87754-4 0  7668
2 29505 097.7529 279.1935 0001581 216.5237 143.5897 14.92204916379441
0 SJ-6C
1 29505U 06046A   13286.80879879  .00000913  00000-0  95100-4 0  7678
2 29505 097.7529 279.5237 0001502 214.4141 145.6999 14.92206186379496
0 SJ-6C
1 29505U 06046A   13287.14407920  .00000984  00000-0  10203-3 0  7689
2 29505 097.7530 279.8537 0001505 215.1303 144.9828 14.92207533379541
0 SJ-6C
1 29505U 06046A   13287.47935954  .00001074  00000-0  11091-3 0  7696
2 29505 097.7531 280.1840 0001544 212.4328 147.6815 14.92209046379596
0 SJ-6C
1 29505U 06046A   13287.81463995  .00001124  00000-0  11575-3 0  7700
2 29505 097.7531 280.5139 0001513 209.6647 150.4499 14.92210237379649
0 SJ-6C
1 29505U 06046A   13288.14991968  .00001181  00000-0  12137-3 0  7712
2 29505 097.7533 280.8438 0001580 208.2855 151.8291 14.92211577379694
0 SJ-6C
1 29505U 06046A   13288.48519938  .00001217  00000-0  12493-3 0  7728
2 29505 097.7535 281.1737 0001651 205.5276 154.5871 14.92212742379743
0 SJ-6C
1 29505U 06046A   13288.82047928  .00001259  00000-0  12906-3 0  7737
2 29505 097.7536 281.5039 0001653 202.0625 158.0532 14.92213887379794
0 SJ-6C
1 29505U 06046A   13289.15575827  .00001315  00000-0  13448-3 0  7744
2 29505 097.7536 281.8339 0001686 202.6442 157.4704 14.92215247379841
0 SJ-6C
1 29505U 06046A   13289.49103763  .00001326  00000-0  13559-3 0  7753
2 29505 097.7540 282.1640 0001713 199.7866 160.3284 14.92216224379899
0 SJ-6C
1 29505U 06046A   13289.82631733  .00001290  00000-0  13207-3 0  7764
2 29505 097.7535 282.4940 0001760 197.0949 163.0194 14.92216719379949
0 SJ-6C
1 29505U 06046A   13290.16159654  .00001297  00000-0  13276-3 0  7774
2 29505 097.7537 282.8243 0001779 195.5330 164.5822 14.92217658379990
0 SJ-6C
1 29505U 06046A   13290.29570837  .00001286  00000-0  13168-3 0  7787
2 29505 097.7539 282.9564 0001775 194.3993 165.7167 14.92217910380018
0 SJ-6C
1 29505U 06046A   13290.63098762  .00001247  00000-0  12785-3 0  7799
2 29505 097.7535 283.2862 0001781 195.3955 164.7197 14.92218430380060
0 SJ-6C
1 29505U 06046A   13290.83215515  .00001232  00000-0  12637-3 0  7800
2 29505 097.7537 283.4844 0001797 194.2642 165.8511 14.92218772380096
0 SJ-6C
1 29505U 06046A   13291.16743414  .00001196  00000-0  12279-3 0  7813
2 29505 097.7536 283.8145 0001784 192.6227 167.4920 14.92219282380145
0 SJ-6C
1 29505U 06046A   13291.50271341  .00001130  00000-0  11637-3 0  7822
2 29505 097.7535 284.1443 0001749 192.5391 167.5753 14.92219523380199
0 SJ-6C
1 29505U 06046A   13291.83799302  .00001071  00000-0  11055-3 0  7839
2 29505 097.7536 284.4743 0001820 190.9637 169.1522 14.92219671380243
0 SJ-6C
1 29505U 06046A   13292.17327211  .00000999  00000-0  10349-3 0  7847
2 29505 097.7537 284.8043 0001855 187.4447 172.6702 14.92219714380291
0 SJ-6C
1 29505U 06046A   13292.44149605  .00000944  00000-0  98144-4 0  7857
2 29505 097.7533 285.0681 0001854 187.8539 172.2638 14.92219792380338
0 SJ-6C
1 29505U 06046A   13292.84383106  .00000860  00000-0  89901-4 0  7866
2 29505 097.7535 285.4642 0001941 185.5046 174.6124 14.92219738380398
0 SJ-6C
1 29505U 06046A   13293.17911022  .00000791  00000-0  83060-4 0  7871
2 29505 097.7536 285.7943 0001990 183.3664 176.7515 14.92219752380441
0 SJ-6C
1 29505U 06046A   13293.51438935  .00000734  00000-0  77481-4 0  7884
2 29505 097.7536 286.1241 0002035 182.0665 178.0532 14.92219866380490
0 SJ-6C
1 29505U 06046A   13293.84966858  .00000675  00000-0  71743-4 0  7890
2 29505 097.7536 286.4543 0002170 180.9186 179.2023 14.92219818380544
0 SJ-6C
1 29505U 06046A   13294.18494715  .00000652  00000-0  69419-4 0  7900
2 29505 097.7537 286.7844 0002147 179.3467 180.7747 14.92220162380599
0 SJ-6C
1 29505U 06046A   13294.52022558  .00000632  00000-0  67462-4 0  7915
2 29505 097.7537 287.1145 0002235 177.7503 182.3722 14.92220522380646
0 SJ-6C
1 29505U 06046A   13294.85550426  .00000619  00000-0  66179-4 0  7921
2 29505 097.7536 287.4443 0002269 176.9776 183.1465 14.92220862380694
0 SJ-6C
1 29505U 06046A   13295.19078204  .00000612  00000-0  65511-4 0  7931
2 29505 097.7537 287.7744 0002258 175.9691 184.1536 14.92221329380740
0 SJ-6C
1 29505U 06046A   13295.45900466  .00000626  00000-0  66841-4 0  7947
2 29505 097.7538 288.0386 0002310 174.4995 185.6259 14.92221845380782
0 SJ-6C
1 29505U 06046A   13295.86133822  .00000637  00000-0  67937-4 0  7956
2 29505 097.7536 288.4345 0002371 173.4612 186.6658 14.92222525380848
0 SJ-6C
1 29505U 06046A   13296.19661524  .00000677  00000-0  71851-4 0  7963
2 29505 097.7536 288.7644 0002447 173.3444 186.7823 14.92223414380897
